NORAD_CAT_ID,OBJECT_NAME,OBJECT_TYPE,EPOCH,MEAN_MOTION,ECCENTRICITY,INCLINATION,RA_OF_ASC_NODE,ARG_OF_PERICENTER,MEAN_ANOMALY,BSTAR,MEAN_MOTION_DOT,MEAN_MOTION_DDOT,TLE_LINE0,TLE_LINE1,TLE_LINE2,SEMIMAJOR_AXIS,PERIOD,APOGEE,PERIGEE,DECAYED
52472.0,STARLINK-3881,PAYLOAD,2022-12-12 03:04:07,15.08853024,0.0002662,53.2185,332.3424,33.3257,326.7903,-6.585300000000001e-05,-1.337e-05,0.0,0 STARLINK-3881,1 52472U 22049X   22346.12786846 -.00001337  00000-0 -65853-4 0  9993,2 52472  53.2185 332.3424 0002662  33.3257 326.7903 15.08853024 33738,6917.840999999999,95.437,541.547,537.864,0.0
52472.0,STARLINK-3881,PAYLOAD,2022-12-12 11:01:04,15.0883969,0.0002772,53.218,330.8562,33.4172,326.6995,2.7616e-05,1.51e-06,0.0,0 STARLINK-3881,1 52472U 22049X   22346.45907588  .00000151  00000-0  27616-4 0  9993,2 52472  53.2180 330.8562 0002772  33.4172 326.6995 15.08839690 33786,6917.880999999999,95.438,541.664,537.8290000000002,0.0
52472.0,STARLINK-3881,PAYLOAD,2022-12-13 09:16:28,15.08842738,0.0002634999999999,53.2183,326.6931,33.8166,326.2994,0.00014828,2.072e-05,0.0,0 STARLINK-3881,1 52472U 22049X   22347.38643533  .00002072  00000-0  14828-3 0  9997,2 52472  53.2183 326.6931 0002635  33.8166 326.2994 15.08842738 33767,6917.871999999999,95.437,541.56,537.914,0.0
52472.0,STARLINK-3881,PAYLOAD,2022-12-13 15:38:00,15.08849115,0.0002646,53.2177,325.5041,33.3589,326.7569,0.00029673,4.439e-05,0.0,0 STARLINK-3881,1 52472U 22049X   22347.65139290  .00004439  00000-0  29673-3 0  9990,2 52472  53.2177 325.5041 0002646  33.3589 326.7569 15.08849115 33967,6917.853,95.437,541.548,537.887,0.0
52472.0,STARLINK-3881,PAYLOAD,2022-12-14 02:45:42,15.08841964,0.0002704,53.2178,323.4227,34.1442,325.9724,0.00011256,1.504e-05,0.0,0 STARLINK-3881,1 52472U 22049X   22348.11507488  .00001504  00000-0  11256-3 0  9998,2 52472  53.2178 323.4227 0002704  34.1442 325.9724 15.08841964 34030,6917.874,95.437,541.61,537.869,0.0
52472.0,STARLINK-3881,PAYLOAD,2022-12-14 10:42:38,15.08836033,0.00027,53.2181,321.9358,34.6341,325.4826,-2.1016e-05,-6.23e-06,0.0,0 STARLINK-3881,1 52472U 22049X   22348.44627872 -.00000623  00000-0 -21016-4 0  9993,2 52472  53.2181 321.9358 0002700  34.6341 325.4826 15.08836033 33927,6917.893,95.438,541.625,537.89,0.0
52472.0,STARLINK-3881,PAYLOAD,2022-12-14 15:28:47,15.08838472,0.0002646,53.2176,321.0441,33.0674,327.0483,0.00010425,1.371e-05,0.0,0 STARLINK-3881,1 52472U 22049X   22348.64499757  .00001371  00000-0  10425-3 0  9994,2 52472  53.2176 321.0441 0002646  33.0674 327.0483 15.08838472 33955,6917.885,95.438,541.581,537.92,0.0
52472.0,STARLINK-3881,PAYLOAD,2022-12-15 07:22:39,15.08842766,0.0002671,53.2177,318.07,33.5724,326.5437,0.00016883,2.4e-05,0.0,0 STARLINK-3881,1 52472U 22049X   22349.30739588  .00002400  00000-0  16883-3 0  9995,2 52472  53.2177 318.0700 0002671  33.5724 326.5437 15.08842766 34213,6917.871999999999,95.437,541.585,537.889,0.0
52472.0,STARLINK-3881,PAYLOAD,2022-12-15 10:33:24,15.08848896,0.0002591,53.2172,317.4756,32.7136,327.4016,0.00024369,3.593e-05,0.0,0 STARLINK-3881,1 52472U 22049X   22349.43987240  .00003593  00000-0  24369-3 0  9991,2 52472  53.2172 317.4756 0002591  32.7136 327.4016 15.08848896 34078,6917.853,95.437,541.511,537.9259999999998,0.0
52472.0,STARLINK-3881,PAYLOAD,2022-12-15 15:19:34,15.08851572,0.0002643,53.2172,316.5837,32.5976,327.5179,0.00026832,3.986e-05,0.0,0 STARLINK-3881,1 52472U 22049X   22349.63859108  .00003986  00000-0  26832-3 0  9997,2 52472  53.2172 316.5837 0002643  32.5976 327.5179 15.08851572 34106,6917.845,95.437,541.538,537.882,0.0
52472.0,STARLINK-3881,PAYLOAD,2022-12-16 08:48:48,15.08845618,0.0002596,53.2173,313.3127,28.744,331.3695,0.00014491,2.019e-05,0.0,0 STARLINK-3881,1 52472U 22049X   22350.36723151  .00002019  00000-0  14491-3 0  9991,2 52472  53.2173 313.3127 0002596  28.7440 331.3695 15.08845618 34373,6917.863,95.437,541.524,537.932,0.0
52472.0,STARLINK-3881,PAYLOAD,2022-12-16 21:31:54,15.08834697,0.000257,53.2172,310.9333,32.9144,327.2008,-6.2105e-05,-1.277e-05,0.0,0 STARLINK-3881,1 52472U 22049X   22350.89715665 -.00001277  00000-0 -62105-4 0  9993,2 52472  53.2172 310.9333 0002570  32.9144 327.2008 15.08834697 34450,6917.897,95.438,541.539,537.984,0.0
52472.0,STARLINK-3881,PAYLOAD,2022-12-17 03:53:27,15.08831675,0.0002551,53.2174,309.7435,32.0964,328.0184,-9.5995e-05,-1.816e-05,0.0,0 STARLINK-3881,1 52472U 22049X   22351.16212025 -.00001816  00000-0 -95995-4 0  9998,2 52472  53.2174 309.7435 0002551  32.0964 328.0184 15.08831675 34335,6917.906,95.438,541.536,538.006,0.0
52472.0,STARLINK-3881,PAYLOAD,2022-12-17 18:11:56,15.08831782,0.0002606,53.2181,307.0675,32.2501,327.865,-8.377100000000001e-05,-1.621e-05,0.0,0 STARLINK-3881,1 52472U 22049X   22351.75828824 -.00001621  00000-0 -83771-4 0  9996,2 52472  53.2181 307.0675 0002606  32.2501 327.8650 15.08831782 34581,6917.906,95.438,541.573,537.9680000000002,0.0
52472.0,STARLINK-3881,PAYLOAD,2022-12-17 21:22:42,15.088343599999998,0.0002575,53.218,306.4726,33.3117,326.8037,-5.9265e-05,-1.231e-05,0.0,0 STARLINK-3881,1 52472U 22049X   22351.89076637 -.00001231  00000-0 -59265-4 0  9996,2 52472  53.2180 306.4726 0002575  33.3117 326.8037 15.08834360 34448,6917.898,95.438,541.544,537.981,0.0
52472.0,STARLINK-3881,PAYLOAD,2022-12-18 03:44:14,15.08838159,0.0002566,53.218,305.2831,33.1529,326.9624,2.1875e-05,6e-07,0.0,0 STARLINK-3881,1 52472U 22049X   22352.15572240  .00000060  00000-0  21875-4 0  9990,2 52472  53.2180 305.2831 0002566  33.1529 326.9624 15.08838159 34642,6917.886,95.438,541.526,537.976,0.0
52472.0,STARLINK-3881,PAYLOAD,2022-12-19 00:24:16,15.08826652,0.0002523,53.2177,301.4175,33.9194,326.1959,9.2403e-05,1.182e-05,0.0,0 STARLINK-3881,1 52472U 22049X   22353.01685216  .00001182  00000-0  92403-4 0  9995,2 52472  53.2177 301.4175 0002523  33.9194 326.1959 15.08826652 34778,6917.920999999999,95.438,541.5319999999998,538.0409999999998,0.0
52472.0,STARLINK-3881,PAYLOAD,2022-12-19 21:04:15,15.08848446,0.0002503,53.2179,297.5522,31.6937,328.4205,0.00020938,3.046e-05,0.0,0 STARLINK-3881,1 52472U 22049X   22353.87795906  .00003046  00000-0  20938-3 0  9991,2 52472  53.2179 297.5522 0002503  31.6937 328.4205 15.08848446 34740,6917.855,95.437,541.451,537.988,0.0
52472.0,STARLINK-3881,PAYLOAD,2022-12-20 12:58:06,15.08860376,0.0002561,53.2172,294.578,31.4933,328.6212,0.00028378,4.233e-05,0.0,0 STARLINK-3881,1 52472U 22049X   22354.54035356  .00004233  00000-0  28378-3 0  9997,2 52472  53.2172 294.5780 0002561  31.4933 328.6212 15.08860376 34841,6917.818,95.436,541.455,537.911,0.0
52472.0,STARLINK-3881,PAYLOAD,2022-12-21 01:41:12,15.08833888,0.0002525,53.2171,292.1999,29.4237,330.6897,-6.0494e-05,-1.251e-05,0.0,0 STARLINK-3881,1 52472U 22049X   22355.07028536 -.00001251  00000-0 -60494-4 0  9993,2 52472  53.2171 292.1999 0002525  29.4237 330.6897 15.08833888 35087,6917.899,95.438,541.511,538.0169999999998,0.0
52472.0,STARLINK-3881,PAYLOAD,2022-12-21 12:48:55,15.088238,0.0002463,53.2172,290.118,30.9912,329.1225,-0.00027411,-4.646e-05,0.0,0 STARLINK-3881,1 52472U 22049X   22355.53397276 -.00004646  00000-0 -27411-3 0  9996,2 52472  53.2172 290.1180 0002463  30.9912 329.1225 15.08823800 35155,6917.93,95.439,541.499,538.091,0.0
52472.0,STARLINK-3881,PAYLOAD,2022-12-22 03:07:23,15.08835821,0.0002319,53.2171,287.4419,40.7433,319.3732,-5.508800000000001e-05,-1.165e-05,0.0,0 STARLINK-3881,1 52472U 22049X   22356.13013003 -.00001165  00000-0 -55088-4 0  9991,2 52472  53.2171 287.4419 0002319  40.7433 319.3732 15.08835821 35245,6917.893,95.438,541.362,538.154,0.0
52472.0,STARLINK-3881,PAYLOAD,2022-12-22 12:39:41,15.08842582,0.0002544,53.2172,285.6576,33.2467,326.8684,3.9669e-05,3.43e-06,0.0,0 STARLINK-3881,1 52472U 22049X   22356.52756790  .00000343  00000-0  39669-4 0  9993,2 52472  53.2172 285.6576 0002544  33.2467 326.8684 15.08842582 35144,6917.871999999999,95.437,541.497,537.9780000000002,0.0
52472.0,STARLINK-3881,PAYLOAD,2022-12-22 20:36:38,15.08835105,0.0002501,53.2175,284.1707,32.1007,328.0137,0.00017974,2.573e-05,0.0,0 STARLINK-3881,1 52472U 22049X   22356.85877401  .00002573  00000-0  17974-3 0  9993,2 52472  53.2175 284.1707 0002501  32.1007 328.0137 15.08835105 35193,6917.895,95.438,541.491,538.03,0.0
52472.0,STARLINK-3881,PAYLOAD,2022-12-23 12:30:29,15.08838401,0.0002545,53.2165,281.1969,34.7484,325.3674,0.00029781,4.454e-05,0.0,0 STARLINK-3881,1 52472U 22049X   22357.52117732  .00004454  00000-0  29781-3 0  9991,2 52472  53.2165 281.1969 0002545  34.7484 325.3674 15.08838401 35293,6917.885,95.438,541.511,537.99,0.0
52472.0,STARLINK-3881,PAYLOAD,2022-12-23 14:05:52,15.08840641,0.000262,53.2163,280.8994,36.1996,323.9173,0.00026048,3.86e-05,0.0,0 STARLINK-3881,1 52472U 22049X   22357.58741656  .00003860  00000-0  26048-3 0  9998,2 52472  53.2163 280.8994 0002620  36.1996 323.9173 15.08840641 35469,6917.878000000002,95.438,541.556,537.931,0.0
52472.0,STARLINK-3881,PAYLOAD,2022-12-23 18:52:02,15.08842197,0.0002598,53.2165,280.0079,35.30699999999999,324.8093,0.00026937,4.002e-05,0.0,0 STARLINK-3881,1 52472U 22049X   22357.78613654  .00004002  00000-0  26937-3 0  9992,2 52472  53.2165 280.0079 0002598  35.3070 324.8093 15.08842197 35330,6917.874,95.437,541.536,537.941,0.0
52472.0,STARLINK-3881,PAYLOAD,2022-12-24 05:59:43,15.08855951,0.0002636,53.2166,277.9266,35.8348,324.2821,0.00041685,6.355e-05,0.0,0 STARLINK-3881,1 52472U 22049X   22358.24980982  .00006355  00000-0  41685-3 0  9995,2 52472  53.2166 277.9266 0002636  35.8348 324.2821 15.08855951 35403,6917.831999999999,95.437,541.52,537.873,0.0
52472.0,STARLINK-3881,PAYLOAD,2022-12-24 12:21:16,15.08852302,0.0002647,53.2165,276.7372,35.97,324.147,0.00028408,4.237e-05,0.0,0 STARLINK-3881,1 52472U 22049X   22358.51476982  .00004237  00000-0  28408-3 0  9990,2 52472  53.2165 276.7372 0002647  35.9700 324.1470 15.08852302 35442,6917.843000000003,95.437,541.539,537.877,0.0
